GSAT-9                  
1 42695U 17024A   17343.51150575 -.00000296  00000-0  00000-0 0  9995
2 42695   0.0554 272.9452 0001661   1.5912  85.4510  1.00271084  2205
